{
  "type": "FeatureCollection",
  "features": [
    {
      "type": "Feature",
      "properties": {
        "norad_id": 40730,
        "name": "GPS BIIF-10 (PRN 08)",
        "group": "gps-ops",
        "lat": 50.44678609124403,
        "lon": 33.87702469345509,
        "alt_km": 20128.41970952696,
        "timestamp": "2025-12-09T09:46:47.904170+00:00",
        "meta_object_name": "GPS BIIF-10 (PRN 08)",
        "meta_object_id": "2015-033A",
        "meta_epoch": "2025-12-08T18:17:13.153056",
        "meta_mean_motion": 2.00565724,
        "meta_eccentricity": 0.01107015,
        "meta_inclination": 54.1342,
        "meta_ra_of_asc_node": 274.9366,
        "meta_arg_of_pericenter": 26.7113,
        "meta_mean_anomaly": 333.8722,
        "meta_ephemeris_type": 0,
        "meta_classification_type": "U",
        "meta_norad_cat_id": 40730,
        "meta_element_set_no": 999,
        "meta_rev_at_epoch": 7617,
        "meta_bstar": 0,
        "meta_mean_motion_dot": -4.4e-07,
        "meta_mean_motion_ddot": 0,
        "tle_line1": "1 40730U 15033A   25342.76195779 -.00000044  00000+0  00000+0 0  9990",
        "tle_line2": "2 40730  54.1342 274.9366 0110701  26.7113 333.8722  2.00565724 76172"
      },
      "geometry": {
        "type": "Point",
        "coordinates": [
          33.87702469345509,
          50.44678609124403
        ]
      }
    },
    {
      "type": "Feature",
      "properties": {
        "norad_id": 41019,
        "name": "GPS BIIF-11 (PRN 10)",
        "group": "gps-ops",
        "lat": 47.665828552331774,
        "lon": 83.984487419296,
        "alt_km": 20464.02592257615,
        "timestamp": "2025-12-09T09:46:47.904182+00:00",
        "meta_object_name": "GPS BIIF-11 (PRN 10)",
        "meta_object_id": "2015-062A",
        "meta_epoch": "2025-12-08T07:44:45.982752",
        "meta_mean_motion": 2.00566979,
        "meta_eccentricity": 0.01106922,
        "meta_inclination": 56.829,
        "meta_ra_of_asc_node": 38.1732,
        "meta_arg_of_pericenter": 229.8078,
        "meta_mean_anomaly": 129.2726,
        "meta_ephemeris_type": 0,
        "meta_classification_type": "U",
        "meta_norad_cat_id": 41019,
        "meta_element_set_no": 999,
        "meta_rev_at_epoch": 7400,
        "meta_bstar": 0,
        "meta_mean_motion_dot": -7.7e-07,
        "meta_mean_motion_ddot": 0,
        "tle_line1": "1 41019U 15062A   25342.32275443 -.00000077  00000+0  00000+0 0  9998",
        "tle_line2": "2 41019  56.8290  38.1732 0110692 229.8078 129.2726  2.00566979 74000"
      },
      "geometry": {
        "type": "Point",
        "coordinates": [
          83.984487419296,
          47.665828552331774
        ]
      }
    },
    {
      "type": "Feature",
      "properties": {
        "norad_id": 41328,
        "name": "GPS BIIF-12 (PRN 32)",
        "group": "gps-ops",
        "lat": 3.0422681718259956,
        "lon": 99.08399439092638,
        "alt_km": 20303.7873964967,
        "timestamp": "2025-12-09T09:46:47.904194+00:00",
        "meta_object_name": "GPS BIIF-12 (PRN 32)",
        "meta_object_id": "2016-007A",
        "meta_epoch": "2025-12-08T09:43:25.720320",
        "meta_mean_motion": 2.0056088,
        "meta_eccentricity": 0.0091947,
        "meta_inclination": 55.4038,
        "meta_ra_of_asc_node": 97.0291,
        "meta_arg_of_pericenter": 243.4665,
        "meta_mean_anomaly": 115.5721,
        "meta_ephemeris_type": 0,
        "meta_classification_type": "U",
        "meta_norad_cat_id": 41328,
        "meta_element_set_no": 999,
        "meta_rev_at_epoch": 7201,
        "meta_bstar": 0,
        "meta_mean_motion_dot": 1e-08,
        "meta_mean_motion_ddot": 0,
        "tle_line1": "1 41328U 16007A   25342.40515880  .00000001  00000+0  00000+0 0  9998",
        "tle_line2": "2 41328  55.4038  97.0291 0091947 243.4665 115.5721  2.00560880 72014"
      },
      "geometry": {
        "type": "Point",
        "coordinates": [
          99.08399439092638,
          3.0422681718259956
        ]
      }
    },
    {
      "type": "Feature",
      "properties": {
        "norad_id": 43873,
        "name": "GPS BIII-1  (PRN 04)",
        "group": "gps-ops",
        "lat": -53.767354794240916,
        "lon": -11.0660665216722,
        "alt_km": 20143.974385677084,
        "timestamp": "2025-12-09T09:46:47.904206+00:00",
        "meta_object_name": "GPS BIII-1  (PRN 04)",
        "meta_object_id": "2018-109A",
        "meta_epoch": "2025-12-08T13:41:32.071776",
        "meta_mean_motion": 2.00553358,
        "meta_eccentricity": 0.003721,
        "meta_inclination": 55.5654,
        "meta_ra_of_asc_node": 99.7112,
        "meta_arg_of_pericenter": 194.8122,
        "meta_mean_anomaly": 178.3596,
        "meta_ephemeris_type": 0,
        "meta_classification_type": "U",
        "meta_norad_cat_id": 43873,
        "meta_element_set_no": 999,
        "meta_rev_at_epoch": 5125,
        "meta_bstar": 0,
        "meta_mean_motion_dot": 6e-08,
        "meta_mean_motion_ddot": 0,
        "tle_line1": "1 43873U 18109A   25342.57051009  .00000006  00000+0  00000+0 0  9991",
        "tle_line2": "2 43873  55.5654  99.7112 0037210 194.8122 178.3596  2.00553358 51259"
      },
      "geometry": {
        "type": "Point",
        "coordinates": [
          -11.0660665216722,
          -53.767354794240916
        ]
      }
    },
    {
      "type": "Feature",
      "properties": {
        "norad_id": 44506,
        "name": "GPS BIII-2  (PRN 18)",
        "group": "gps-ops",
        "lat": 21.316910834770866,
        "lon": 143.24465074799647,
        "alt_km": 20070.10099017724,
        "timestamp": "2025-12-09T09:46:47.904219+00:00",
        "meta_object_name": "GPS BIII-2  (PRN 18)",
        "meta_object_id": "2019-056A",
        "meta_epoch": "2025-12-08T22:40:04.403424",
        "meta_mean_motion": 2.00566001,
        "meta_eccentricity": 0.0057777,
        "meta_inclination": 55.7226,
        "meta_ra_of_asc_node": 338.7027,
        "meta_arg_of_pericenter": 198.4897,
        "meta_mean_anomaly": 341.515,
        "meta_ephemeris_type": 0,
        "meta_classification_type": "U",
        "meta_norad_cat_id": 44506,
        "meta_element_set_no": 999,
        "meta_rev_at_epoch": 4625,
        "meta_bstar": 0,
        "meta_mean_motion_dot": -8.5e-07,
        "meta_mean_motion_ddot": 0,
        "tle_line1": "1 44506U 19056A   25342.94449541 -.00000085  00000+0  00000+0 0  9998",
        "tle_line2": "2 44506  55.7226 338.7027 0057777 198.4897 341.5150  2.00566001 46253"
      },
      "geometry": {
        "type": "Point",
        "coordinates": [
          143.24465074799647,
          21.316910834770866
        ]
      }
    },
    {
      "type": "Feature",
      "properties": {
        "norad_id": 45854,
        "name": "GPS BIII-3  (PRN 23)",
        "group": "gps-ops",
        "lat": 55.76258267168857,
        "lon": 140.21471685012943,
        "alt_km": 20218.2929293109,
        "timestamp": "2025-12-09T09:46:47.904231+00:00",
        "meta_object_name": "GPS BIII-3  (PRN 23)",
        "meta_object_id": "2020-041A",
        "meta_epoch": "2025-12-08T06:52:29.701632",
        "meta_mean_motion": 2.00561767,
        "meta_eccentricity": 0.0060382,
        "meta_inclination": 56.544,
        "meta_ra_of_asc_node": 36.3588,
        "meta_arg_of_pericenter": 203.2609,
        "meta_mean_anomaly": 165.7518,
        "meta_ephemeris_type": 0,
        "meta_classification_type": "U",
        "meta_norad_cat_id": 45854,
        "meta_element_set_no": 999,
        "meta_rev_at_epoch": 4021,
        "meta_bstar": 0,
        "meta_mean_motion_dot": -7.9e-07,
        "meta_mean_motion_ddot": 0,
        "tle_line1": "1 45854U 20041A   25342.28645488 -.00000079  00000+0  00000+0 0  9999",
        "tle_line2": "2 45854  56.5440  36.3588 0060382 203.2609 165.7518  2.00561767 40210"
      },
      "geometry": {
        "type": "Point",
        "coordinates": [
          140.21471685012943,
          55.76258267168857
        ]
      }
    },
    {
      "type": "Feature",
      "properties": {
        "norad_id": 46826,
        "name": "GPS BIII-4  (PRN 14)",
        "group": "gps-ops",
        "lat": 48.94806123453826,
        "lon": -85.0191425433442,
        "alt_km": 20296.259645004808,
        "timestamp": "2025-12-09T09:46:47.904243+00:00",
        "meta_object_name": "GPS BIII-4  (PRN 14)",
        "meta_object_id": "2020-078A",
        "meta_epoch": "2025-12-08T14:24:03.318624",
        "meta_mean_motion": 2.00566768,
        "meta_eccentricity": 0.00645741,
        "meta_inclination": 54.0161,
        "meta_ra_of_asc_node": 218.509,
        "meta_arg_of_pericenter": 203.354,
        "meta_mean_anomaly": 2.942,
        "meta_ephemeris_type": 0,
        "meta_classification_type": "U",
        "meta_norad_cat_id": 46826,
        "meta_element_set_no": 999,
        "meta_rev_at_epoch": 3768,
        "meta_bstar": 0,
        "meta_mean_motion_dot": 1.6e-07,
        "meta_mean_motion_ddot": 0,
        "tle_line1": "1 46826U 20078A   25342.60003841  .00000016  00000+0  00000+0 0  9996",
        "tle_line2": "2 46826  54.0161 218.5090 0064574 203.3540   2.9420  2.00566768 37684"
      },
      "geometry": {
        "type": "Point",
        "coordinates": [
          -85.0191425433442,
          48.94806123453826
        ]
      }
    }
  ]
}